{
  "type": "FeatureCollection",
  "features": [
    {
      "type": "Feature",
      "properties": {
        "norad_id": 37238,
        "name": "INTELSAT 17 (IS-17)",
        "group": "intelsat",
        "lat": 0.008822350299440418,
        "lon": -141.60559853831435,
        "alt_km": 35782.800825746126,
        "timestamp": "2025-12-26T03:50:11.755496+00:00",
        "meta_object_name": "INTELSAT 17 (IS-17)",
        "meta_object_id": "2010-065B",
        "meta_epoch": "2025-12-25T20:46:32.444256",
        "meta_mean_motion": 1.00271904,
        "meta_eccentricity": 0.0002828,
        "meta_inclination": 0.0269,
        "meta_ra_of_asc_node": 72.8389,
        "meta_arg_of_pericenter": 220.007,
        "meta_mean_anomaly": 179.3828,
        "meta_ephemeris_type": 0,
        "meta_classification_type": "U",
        "meta_norad_cat_id": 37238,
        "meta_element_set_no": 999,
        "meta_rev_at_epoch": 5151,
        "meta_bstar": 0,
        "meta_mean_motion_dot": 0,
        "meta_mean_motion_ddot": 0,
        "tle_line1": "1 37238U 10065B   25359.86565329  .00000000  00000+0  00000+0 0  9991",
        "tle_line2": "2 37238   0.0269  72.8389 0002828 220.0070 179.3828  1.00271904 51514"
      },
      "geometry": {
        "type": "Point",
        "coordinates": [
          -141.60559853831435,
          0.008822350299440418
        ]
      }
    },
    {
      "type": "Feature",
      "properties": {
        "norad_id": 37392,
        "name": "INTELSAT 28 (IS-28)",
        "group": "intelsat",
        "lat": 0.8128048306443465,
        "lon": 120.7195234797382,
        "alt_km": 35800.10361080715,
        "timestamp": "2025-12-26T03:50:11.755508+00:00",
        "meta_object_name": "INTELSAT 28 (IS-28)",
        "meta_object_id": "2011-016A",
        "meta_epoch": "2025-12-25T07:46:46.230816",
        "meta_mean_motion": 1.00271849,
        "meta_eccentricity": 0.0003772,
        "meta_inclination": 1.3552,
        "meta_ra_of_asc_node": 84.9189,
        "meta_arg_of_pericenter": 187.6126,
        "meta_mean_anomaly": 266.5422,
        "meta_ephemeris_type": 0,
        "meta_classification_type": "U",
        "meta_norad_cat_id": 37392,
        "meta_element_set_no": 999,
        "meta_rev_at_epoch": 5154,
        "meta_bstar": 0,
        "meta_mean_motion_dot": -2.04e-06,
        "meta_mean_motion_ddot": 0,
        "tle_line1": "1 37392U 11016A   25359.32414619 -.00000204  00000+0  00000+0 0  9992",
        "tle_line2": "2 37392   1.3552  84.9189 0003772 187.6126 266.5422  1.00271849 51545"
      },
      "geometry": {
        "type": "Point",
        "coordinates": [
          120.7195234797382,
          0.8128048306443465
        ]
      }
    },
    {
      "type": "Feature",
      "properties": {
        "norad_id": 37834,
        "name": "INTELSAT 18 (IS-18)",
        "group": "intelsat",
        "lat": 0.0013256881674557886,
        "lon": -27.53638139633343,
        "alt_km": 35780.16415468673,
        "timestamp": "2025-12-26T03:50:11.755520+00:00",
        "meta_object_name": "INTELSAT 18 (IS-18)",
        "meta_object_id": "2011-056A",
        "meta_epoch": "2025-12-25T13:55:22.248768",
        "meta_mean_motion": 1.00271778,
        "meta_eccentricity": 0.0001891,
        "meta_inclination": 0.0194,
        "meta_ra_of_asc_node": 293.2532,
        "meta_arg_of_pericenter": 356.5598,
        "meta_mean_anomaly": 193.3649,
        "meta_ephemeris_type": 0,
        "meta_classification_type": "U",
        "meta_norad_cat_id": 37834,
        "meta_element_set_no": 999,
        "meta_rev_at_epoch": 5207,
        "meta_bstar": 0,
        "meta_mean_motion_dot": 7.4e-07,
        "meta_mean_motion_ddot": 0,
        "tle_line1": "1 37834U 11056A   25359.58011862  .00000074  00000+0  00000+0 0  9992",
        "tle_line2": "2 37834   0.0194 293.2532 0001891 356.5598 193.3649  1.00271778 52079"
      },
      "geometry": {
        "type": "Point",
        "coordinates": [
          -27.53638139633343,
          0.0013256881674557886
        ]
      }
    },
    {
      "type": "Feature",
      "properties": {
        "norad_id": 38098,
        "name": "INTELSAT 22 (IS-22)",
        "group": "intelsat",
        "lat": -0.004580434702206412,
        "lon": -135.48599510655316,
        "alt_km": 35784.165709657624,
        "timestamp": "2025-12-26T03:50:11.755532+00:00",
        "meta_object_name": "INTELSAT 22 (IS-22)",
        "meta_object_id": "2012-011A",
        "meta_epoch": "2025-12-25T19:18:47.428704",
        "meta_mean_motion": 1.00270575,
        "meta_eccentricity": 0.000195,
        "meta_inclination": 0.0309,
        "meta_ra_of_asc_node": 50.2423,
        "meta_arg_of_pericenter": 248.5846,
        "meta_mean_anomaly": 157.5157,
        "meta_ephemeris_type": 0,
        "meta_classification_type": "U",
        "meta_norad_cat_id": 38098,
        "meta_element_set_no": 999,
        "meta_rev_at_epoch": 545,
        "meta_bstar": 0,
        "meta_mean_motion_dot": 0,
        "meta_mean_motion_ddot": 0,
        "tle_line1": "1 38098U 12011A   25359.80471561  .00000000  00000+0  00000+0 0  9997",
        "tle_line2": "2 38098   0.0309  50.2423 0001950 248.5846 157.5157  1.00270575  5452"
      },
      "geometry": {
        "type": "Point",
        "coordinates": [
          -135.48599510655316,
          -0.004580434702206412
        ]
      }
    },
    {
      "type": "Feature",
      "properties": {
        "norad_id": 38356,
        "name": "INTELSAT 19 (IS-19)",
        "group": "intelsat",
        "lat": -0.01269304521616694,
        "lon": -41.51522009098591,
        "alt_km": 35777.479227578064,
        "timestamp": "2025-12-26T03:50:11.755544+00:00",
        "meta_object_name": "INTELSAT 19 (IS-19)",
        "meta_object_id": "2012-030A",
        "meta_epoch": "2025-12-25T13:02:38.686848",
        "meta_mean_motion": 1.00272036,
        "meta_eccentricity": 0.0002961,
        "meta_inclination": 0.0106,
        "meta_ra_of_asc_node": 331.8116,
        "meta_arg_of_pericenter": 299.4654,
        "meta_mean_anomaly": 184.6938,
        "meta_ephemeris_type": 0,
        "meta_classification_type": "U",
        "meta_norad_cat_id": 38356,
        "meta_element_set_no": 999,
        "meta_rev_at_epoch": 4871,
        "meta_bstar": 0,
        "meta_mean_motion_dot": -3.5e-07,
        "meta_mean_motion_ddot": 0,
        "tle_line1": "1 38356U 12030A   25359.54350332 -.00000035  00000+0  00000+0 0  9997",
        "tle_line2": "2 38356   0.0106 331.8116 0002961 299.4654 184.6938  1.00272036 48714"
      },
      "geometry": {
        "type": "Point",
        "coordinates": [
          -41.51522009098591,
          -0.01269304521616694
        ]
      }
    },
    {
      "type": "Feature",
      "properties": {
        "norad_id": 38740,
        "name": "INTELSAT 20 (IS-20)",
        "group": "intelsat",
        "lat": -0.0009690387676397939,
        "lon": -139.02223759614222,
        "alt_km": 35776.87414470471,
        "timestamp": "2025-12-26T03:50:11.755556+00:00",
        "meta_object_name": "INTELSAT 20 (IS-20)",
        "meta_object_id": "2012-043A",
        "meta_epoch": "2025-12-24T23:41:40.191072",
        "meta_mean_motion": 1.00274574,
        "meta_eccentricity": 0.00024069,
        "meta_inclination": 0.0114,
        "meta_ra_of_asc_node": 58.8187,
        "meta_arg_of_pericenter": 128.2176,
        "meta_mean_anomaly": 330.6334,
        "meta_ephemeris_type": 0,
        "meta_classification_type": "U",
        "meta_norad_cat_id": 38740,
        "meta_element_set_no": 999,
        "meta_rev_at_epoch": 4900,
        "meta_bstar": 0,
        "meta_mean_motion_dot": -4e-08,
        "meta_mean_motion_ddot": 0,
        "tle_line1": "1 38740U 12043A   25358.98727073 -.00000004  00000+0  00000+0 0  9991",
        "tle_line2": "2 38740   0.0114  58.8187 0002406 128.2176 330.6334  1.00274574 49001"
      },
      "geometry": {
        "type": "Point",
        "coordinates": [
          -139.02223759614222,
          -0.0009690387676397939
        ]
      }
    },
    {
      "type": "Feature",
      "properties": {
        "norad_id": 38749,
        "name": "INTELSAT 21 (IS-21)",
        "group": "intelsat",
        "lat": 0.025460362431136144,
        "lon": 94.46387843470232,
        "alt_km": 35793.17909731021,
        "timestamp": "2025-12-26T03:50:11.755568+00:00",
        "meta_object_name": "INTELSAT 21 (IS-21)",
        "meta_object_id": "2012-045A",
        "meta_epoch": "2025-12-25T09:21:59.613120",
        "meta_mean_motion": 1.00272381,
        "meta_eccentricity": 0.0001717,
        "meta_inclination": 0.0147,
        "meta_ra_of_asc_node": 324.6716,
        "meta_arg_of_pericenter": 300.7853,
        "meta_mean_anomaly": 271.2065,
        "meta_ephemeris_type": 0,
        "meta_classification_type": "U",
        "meta_norad_cat_id": 38749,
        "meta_element_set_no": 999,
        "meta_rev_at_epoch": 4878,
        "meta_bstar": 0,
        "meta_mean_motion_dot": -2.63e-06,
        "meta_mean_motion_ddot": 0,
        "tle_line1": "1 38749U 12045A   25359.39027330 -.00000263  00000+0  00000+0 0  9994",
        "tle_line2": "2 38749   0.0147 324.6716 0001717 300.7853 271.2065  1.00272381 48780"
      },
      "geometry": {
        "type": "Point",
        "coordinates": [
          94.46387843470232,
          0.025460362431136144
        ]
      }
    }
  ]
}